line1,line2,validFromUtcTime
1 00000U 00000E   26001.00000000  .00000000  00000-0  27772-4 0    01,2 00000  88.9289  30.3309 0010046 269.9917  90.1353 13.55304315    09,2026-01-01T00:00:00Z
1 00000U 00000E   26002.00000000  .00000000  00000-0  27772-4 0    02,2 00000  88.9289  30.2219 0010046 267.0813 289.2293 13.55304353    08,2026-01-02T00:00:00Z
